start=new Date('2022-08-05T00:00:00.000Z').valueOf();
sats=[{"RCS_SIZE":"LARGE","GP_ID":"209592702","OBJECT_ID":"2022-051AL","REF_FRAME":"TEME","OBJECT_TYPE":"PAYLOAD","BSTAR":"0.00165700000000","CLASSIFICATION_TYPE":"U","INCLINATION":"53.2140","ARG_OF_PERICENTER":"46.6098","MEAN_MOTION":"15.08803748","TIME_SYSTEM":"UTC","SEMIMAJOR_AXIS":"6917.991","MEAN_ANOMALY":"89.5177","EPOCH":"2022-08-04T22:00:00.999936","MEAN_ELEMENT_THEORY":"SGP4","TLE_LINE2":"2 52567  53.2140 252.3850 0001587  46.6098  89.5177 15.08803748  1306","ECCENTRICITY":"0.00015870","LAUNCH_DATE":"2022-05-13","SITE":"AFWTR","MEAN_MOTION_DDOT":"0.0000000000000","APOAPSIS":"540.954","DECAY_DATE":null,"MEAN_MOTION_DOT":"0.00026155","CENTER_NAME":"EARTH","EPHEMERIS_TYPE":"0","NORAD_CAT_ID":"52567","PERIOD":"95.440","FILE":"3529274","TLE_LINE1":"1 52567U 22051AL  22216.91667824  .00026155  00000-0  16570-2 0  9991","ELEMENT_SET_NO":"999","RA_OF_ASC_NODE":"252.3850","PERIAPSIS":"538.758","COUNTRY_CODE":"US","REV_AT_EPOCH":"130","OBJECT_NAME":"STARLINK-3929"},{"OBJECT_ID":"2022-051AM","REF_FRAME":"TEME","BSTAR":"0.00819380000000","OBJECT_TYPE":"PAYLOAD","INCLINATION":"53.2152","CLASSIFICATION_TYPE":"U","GP_ID":"209567634","RCS_SIZE":"LARGE","TIME_SYSTEM":"UTC","SEMIMAJOR_AXIS":"6918.103","EPOCH":"2022-08-04T22:00:00.999936","MEAN_ANOMALY":"148.3238","ARG_OF_PERICENTER":"47.7825","MEAN_MOTION":"15.08767081","MEAN_MOTION_DOT":"0.00132311","APOAPSIS":"541.164","DECAY_DATE":null,"EPHEMERIS_TYPE":"0","CENTER_NAME":"EARTH","NORAD_CAT_ID":"52568","TLE_LINE2":"2 52568  53.2152 252.3829 0001729  47.7825 148.3238 15.08767081 13465","MEAN_ELEMENT_THEORY":"SGP4","SITE":"AFWTR","LAUNCH_DATE":"2022-05-13","ECCENTRICITY":"0.00017290","MEAN_MOTION_DDOT":"0.0000000000000","RA_OF_ASC_NODE":"252.3829","COUNTRY_CODE":"US","REV_AT_EPOCH":"1346","PERIAPSIS":"538.772","OBJECT_NAME":"STARLINK-3930","PERIOD":"95.442","TLE_LINE1":"1 52568U 22051AM  22216.91667824  .00132311  00000-0  81938-2 0  9994","FILE":"3529246","ELEMENT_SET_NO":"999"},{"EPOCH":"2022-08-04T22:00:00.999936","MEAN_ANOMALY":"103.8117","SEMIMAJOR_AXIS":"6917.952","TIME_SYSTEM":"UTC","MEAN_MOTION":"15.08816508","ARG_OF_PERICENTER":"52.2569","REF_FRAME":"TEME","OBJECT_ID":"2022-051AN","INCLINATION":"53.2127","CLASSIFICATION_TYPE":"U","OBJECT_TYPE":"PAYLOAD","BSTAR":"0.00176470000000","RCS_SIZE":"LARGE","GP_ID":"209567643","RA_OF_ASC_NODE":"252.3849","OBJECT_NAME":"STARLINK-3927","PERIAPSIS":"538.696","COUNTRY_CODE":"US","REV_AT_EPOCH":"1346","FILE":"3529258","TLE_LINE1":"1 52569U 22051AN  22216.91667824  .00027891  00000-0  17647-2 0  9997","PERIOD":"95.439","ELEMENT_SET_NO":"999","CENTER_NAME":"EARTH","EPHEMERIS_TYPE":"0","DECAY_DATE":null,"APOAPSIS":"540.938","MEAN_MOTION_DOT":"0.00027891","NORAD_CAT_ID":"52569","ECCENTRICITY":"0.00016200","LAUNCH_DATE":"2022-05-13","SITE":"AFWTR","MEAN_ELEMENT_THEORY":"SGP4","TLE_LINE2":"2 52569  53.2127 252.3849 0001620  52.2569 103.8117 15.08816508 13467","MEAN_MOTION_DDOT":"0.0000000000000"},{"ARG_OF_PERICENTER":"59.2081","MEAN_MOTION":"15.08833449","SEMIMAJOR_AXIS":"6917.900","TIME_SYSTEM":"UTC","MEAN_ANOMALY":"156.8038","EPOCH":"2022-08-04T22:00:00.999936","GP_ID":"209567127","RCS_SIZE":"LARGE","REF_FRAME":"TEME","OBJECT_ID":"2022-051AP","BSTAR":"0.00175680000000","OBJECT_TYPE":"PAYLOAD","INCLINATION":"53.2132","CLASSIFICATION_TYPE":"U","PERIOD":"95.438","TLE_LINE1":"1 52570U 22051AP  22216.91667824  .00027777  00000-0  17568-2 0  9994","FILE":"3529246","ELEMENT_SET_NO":"999","RA_OF_ASC_NODE":"252.3852","REV_AT_EPOCH":"1346","COUNTRY_CODE":"US","PERIAPSIS":"538.521","OBJECT_NAME":"STARLINK-3924","TLE_LINE2":"2 52570  53.2132 252.3852 0001799  59.2081 156.8038 15.08833449 13465","MEAN_ELEMENT_THEORY":"SGP4","SITE":"AFWTR","ECCENTRICITY":"0.00017990","LAUNCH_DATE":"2022-05-13","MEAN_MOTION_DDOT":"0.0000000000000","MEAN_MOTION_DOT":"0.00027777","APOAPSIS":"541.010","DECAY_DATE":null,"EPHEMERIS_TYPE":"0","CENTER_NAME":"EARTH","NORAD_CAT_ID":"52570"},{"RA_OF_ASC_NODE":"251.9958","OBJECT_NAME":"STARLINK-3901","COUNTRY_CODE":"US","REV_AT_EPOCH":"1347","PERIAPSIS":"543.477","TLE_LINE1":"1 52574U 22051AQ  22216.91667824  .00005557  00000-0  38357-3 0  9990","FILE":"3529246","PERIOD":"95.542","ELEMENT_SET_NO":"999","EPHEMERIS_TYPE":"0","CENTER_NAME":"EARTH","MEAN_MOTION_DOT":"0.00005557","DECAY_DATE":null,"APOAPSIS":"546.117","NORAD_CAT_ID":"52574","SITE":"AFWTR","LAUNCH_DATE":"2022-05-13","ECCENTRICITY":"0.00019070","TLE_LINE2":"2 52574  53.2159 251.9958 0001907  48.6873 331.1092 15.07188879 13470","MEAN_ELEMENT_THEORY":"SGP4","MEAN_MOTION_DDOT":"0.0000000000000","EPOCH":"2022-08-04T22:00:00.999936","MEAN_ANOMALY":"331.1092","SEMIMAJOR_AXIS":"6922.932","TIME_SYSTEM":"UTC","MEAN_MOTION":"15.07188879","ARG_OF_PERICENTER":"48.6873","OBJECT_ID":"2022-051AQ","REF_FRAME":"TEME","INCLINATION":"53.2159","CLASSIFICATION_TYPE":"U","BSTAR":"0.00038357000000","OBJECT_TYPE":"PAYLOAD","GP_ID":"209567121","RCS_SIZE":"LARGE"},{"REF_FRAME":"TEME","OBJECT_ID":"2022-051AR","BSTAR":"0.00181820000000","OBJECT_TYPE":"PAYLOAD","CLASSIFICATION_TYPE":"U","INCLINATION":"53.2132","GP_ID":"209567126","RCS_SIZE":"LARGE","TIME_SYSTEM":"UTC","SEMIMAJOR_AXIS":"6917.921","EPOCH":"2022-08-04T22:00:00.999936","MEAN_ANOMALY":"198.2417","ARG_OF_PERICENTER":"37.8738","MEAN_MOTION":"15.08826666","MEAN_MOTION_DOT":"0.00028757","DECAY_DATE":null,"APOAPSIS":"541.032","EPHEMERIS_TYPE":"0","CENTER_NAME":"EARTH","NORAD_CAT_ID":"52575","TLE_LINE2":"2 52575  53.2132 252.3813 0001801  37.8738 198.2417 15.08826666 13477","MEAN_ELEMENT_THEORY":"SGP4","SITE":"AFWTR","LAUNCH_DATE":"2022-05-13","ECCENTRICITY":"0.00018010","MEAN_MOTION_DDOT":"0.0000000000000","RA_OF_ASC_NODE":"252.3813","REV_AT_EPOCH":"1347","COUNTRY_CODE":"US","PERIAPSIS":"538.540","OBJECT_NAME":"STARLINK-3920","PERIOD":"95.438","TLE_LINE1":"1 52575U 22051AR  22216.91667824  .00028757  00000-0  18182-2 0  9991","FILE":"3529246","ELEMENT_SET_NO":"999"},{"ELEMENT_SET_NO":"999","FILE":"3529246","TLE_LINE1":"1 52576U 22051AS  22216.91667824  .00030560  00000-0  19305-2 0  9995","PERIOD":"95.438","OBJECT_NAME":"STARLINK-3932","PERIAPSIS":"538.522","REV_AT_EPOCH":"1347","COUNTRY_CODE":"US","RA_OF_ASC_NODE":"252.3725","MEAN_MOTION_DDOT":"0.0000000000000","LAUNCH_DATE":"2022-05-13","ECCENTRICITY":"0.00018180","SITE":"AFWTR","MEAN_ELEMENT_THEORY":"SGP4","TLE_LINE2":"2 52576  53.2157 252.3725 0001818  40.5680 230.3609 15.08828725 13471","NORAD_CAT_ID":"52576","CENTER_NAME":"EARTH","EPHEMERIS_TYPE":"0","DECAY_DATE":null,"APOAPSIS":"541.038","MEAN_MOTION_DOT":"0.00030560","MEAN_MOTION":"15.08828725","ARG_OF_PERICENTER":"40.5680","EPOCH":"2022-08-04T22:00:00.999936","MEAN_ANOMALY":"230.3609","SEMIMAJOR_AXIS":"6917.915","TIME_SYSTEM":"UTC","RCS_SIZE":"LARGE","GP_ID":"209567122","INCLINATION":"53.2157","CLASSIFICATION_TYPE":"U","OBJECT_TYPE":"PAYLOAD","BSTAR":"0.00193050000000","REF_FRAME":"TEME","OBJECT_ID":"2022-051AS"},{"ARG_OF_PERICENTER":"55.7970","MEAN_MOTION":"15.08826300","TIME_SYSTEM":"UTC","SEMIMAJOR_AXIS":"6917.922","EPOCH":"2022-08-04T22:00:00.999936","MEAN_ANOMALY":"297.8030","GP_ID":"209592833","RCS_SIZE":"LARGE","BSTAR":"0.00054127000000","OBJECT_TYPE":"PAYLOAD","CLASSIFICATION_TYPE":"U","INCLINATION":"53.2190","REF_FRAME":"TEME","OBJECT_ID":"2022-051AT","ELEMENT_SET_NO":"999","PERIOD":"95.438","TLE_LINE1":"1 52577U 22051AT  22216.91667824  .00008334  00000-0  54127-3 0  9992","FILE":"3529274","COUNTRY_CODE":"US","REV_AT_EPOCH":"130","PERIAPSIS":"538.504","OBJECT_NAME":"STARLINK-3836","RA_OF_ASC_NODE":"267.3854","MEAN_MOTION_DDOT":"0.0000000000000","TLE_LINE2":"2 52577  53.2190 267.3854 0001855  55.7970 297.8030 15.08826300  1301","MEAN_ELEMENT_THEORY":"SGP4","SITE":"AFWTR","LAUNCH_DATE":"2022-05-13","ECCENTRICITY":"0.00018550","NORAD_CAT_ID":"52577","MEAN_MOTION_DOT":"0.00008334","DECAY_DATE":null,"APOAPSIS":"541.071","EPHEMERIS_TYPE":"0","CENTER_NAME":"EARTH"},{"RCS_SIZE":"LARGE","GP_ID":"209592180","OBJECT_TYPE":"PAYLOAD","BSTAR":"0.00055460000000","INCLINATION":"53.2182","CLASSIFICATION_TYPE":"U","OBJECT_ID":"2022-051AU","REF_FRAME":"TEME","ARG_OF_PERICENTER":"40.5728","MEAN_MOTION":"15.08824851","TIME_SYSTEM":"UTC","SEMIMAJOR_AXIS":"6917.927","MEAN_ANOMALY":"293.0305","EPOCH":"2022-08-04T22:00:00.999936","MEAN_MOTION_DDOT":"0.0000000000000","MEAN_ELEMENT_THEORY":"SGP4","TLE_LINE2":"2 52578  53.2182 267.3817 0001938  40.5728 293.0305 15.08824851  1309","LAUNCH_DATE":"2022-05-13","ECCENTRICITY":"0.00019380","SITE":"AFWTR","NORAD_CAT_ID":"52578","APOAPSIS":"541.132","DECAY_DATE":null,"MEAN_MOTION_DOT":"0.00008546","CENTER_NAME":"EARTH","EPHEMERIS_TYPE":"0","ELEMENT_SET_NO":"999","PERIOD":"95.439","FILE":"3529274","TLE_LINE1":"1 52578U 22051AU  22216.91667824  .00008546  00000-0  55460-3 0  9999","PERIAPSIS":"538.451","REV_AT_EPOCH":"130","COUNTRY_CODE":"US","OBJECT_NAME":"STARLINK-3833","RA_OF_ASC_NODE":"267.3817"},{"LAUNCH_DATE":"2022-05-13","ECCENTRICITY":"0.00016170","SITE":"AFWTR","MEAN_ELEMENT_THEORY":"SGP4","TLE_LINE2":"2 52579  53.2183 267.3849 0001617  61.6360 331.9682 15.08832950  1305","MEAN_MOTION_DDOT":"0.0000000000000","CENTER_NAME":"EARTH","EPHEMERIS_TYPE":"0","DECAY_DATE":null,"APOAPSIS":"540.886","MEAN_MOTION_DOT":"0.00008990","NORAD_CAT_ID":"52579","FILE":"3529274","TLE_LINE1":"1 52579U 22051AV  22216.91667824  .00008990  00000-0  58233-3 0  9994","PERIOD":"95.438","ELEMENT_SET_NO":"999","RA_OF_ASC_NODE":"267.3849","OBJECT_NAME":"STARLINK-3893","PERIAPSIS":"538.648","REV_AT_EPOCH":"130","COUNTRY_CODE":"US","RCS_SIZE":"LARGE","GP_ID":"209592311","REF_FRAME":"TEME","OBJECT_ID":"2022-051AV","INCLINATION":"53.2183","CLASSIFICATION_TYPE":"U","OBJECT_TYPE":"PAYLOAD","BSTAR":"0.00058233000000","MEAN_MOTION":"15.08832950","ARG_OF_PERICENTER":"61.6360","MEAN_ANOMALY":"331.9682","EPOCH":"2022-08-04T22:00:00.999936","SEMIMAJOR_AXIS":"6917.902","TIME_SYSTEM":"UTC"}];
